NORAD_CAT_ID,OBJECT_NAME,OBJECT_TYPE,EPOCH,MEAN_MOTION,ECCENTRICITY,INCLINATION,RA_OF_ASC_NODE,ARG_OF_PERICENTER,MEAN_ANOMALY,BSTAR,MEAN_MOTION_DOT,MEAN_MOTION_DDOT,TLE_LINE0,TLE_LINE1,TLE_LINE2,SEMIMAJOR_AXIS,PERIOD,APOGEE,PERIGEE,DECAYED
52003.0,STARLINK-3654,PAYLOAD,2023-05-29 13:23:30,15.0884201,8.31e-05,53.2166,256.2214,81.552,278.5567,7.5557e-05,9.15e-06,0.0,0 STARLINK-3654,1 52003U 22025AZ  23149.55798640  .00000915  00000-0  75557-4 0  9992,2 52003  53.2166 256.2214 0000831  81.5520 278.5567 15.08842010 67675,6917.874,95.437,540.314,539.164,0.0
52003.0,STARLINK-3654,PAYLOAD,2023-05-30 00:31:12,15.08833378,9.04e-05,53.2153,254.149,36.5358,323.5696,-2.5528e-05,-6.94e-06,0.0,0 STARLINK-3654,1 52003U 22025AZ  23150.02167652 -.00000694  00000-0 -25528-4 0  9998,2 52003  53.2153 254.1490 0000904  36.5358 323.5696 15.08833378 69251,6917.901,95.438,540.391,539.14,0.0
52003.0,STARLINK-3654,PAYLOAD,2023-05-30 10:03:32,15.08824132,7.34e-05,53.2161,252.3559,86.4498,273.6578,-0.0001046,-1.951e-05,0.0,0 STARLINK-3654,1 52003U 22025AZ  23150.41912700 -.00001951  00000-0 -10460-3 0  9998,2 52003  53.2161 252.3559 0000734  86.4498 273.6578 15.08824132 69315,6917.929,95.439,540.302,539.286,0.0
52003.0,STARLINK-3654,PAYLOAD,2023-05-30 11:38:55,15.08825996,7.29e-05,53.2168,252.0562,101.4348,258.6726,-0.00010121,-1.897e-05,0.0,0 STARLINK-3654,1 52003U 22025AZ  23150.48536607 -.00001897  00000-0 -10121-3 0  9996,2 52003  53.2168 252.0562 0000729 101.4348 258.6726 15.08825996 67819,6917.923,95.438,540.293,539.284,0.0
52003.0,STARLINK-3654,PAYLOAD,2023-05-30 16:25:04,15.08830127,7.42e-05,53.2167,251.1646,96.6059,263.5018,-0.00010712,-1.992e-05,0.0,0 STARLINK-3654,1 52003U 22025AZ  23150.68408508 -.00001992  00000-0 -10712-3 0  9998,2 52003  53.2167 251.1646 0000742  96.6059 263.5018 15.08830127 67844,6917.911,95.438,540.289,539.262,0.0
52003.0,STARLINK-3654,PAYLOAD,2023-05-31 00:22:00,15.08836579,6.57e-05,53.2163,249.6785,114.3829,245.7231,-7.671e-05,-1.508e-05,0.0,0 STARLINK-3654,1 52003U 22025AZ  23151.01528075 -.00001508  00000-0 -76710-4 0  9992,2 52003  53.2163 249.6785 0000657 114.3829 245.7231 15.08836579 69404,6917.891,95.438,540.21,539.301,0.0
52003.0,STARLINK-3654,PAYLOAD,2023-05-31 11:29:41,15.08842913,6.8e-05,53.2162,247.5978,74.8988,285.2079,0.00015756,2.221e-05,0.0,0 STARLINK-3654,1 52003U 22025AZ  23151.47895472  .00002221  00000-0  15756-3 0  9993,2 52003  53.2162 247.5978 0000680  74.8988 285.2079 15.08842913 69471,6917.871,95.437,540.207,539.266,0.0
52003.0,STARLINK-3654,PAYLOAD,2023-05-31 13:05:04,15.08847602,6.22e-05,53.2163,247.2995,97.272,262.8343,0.00016181,2.289e-05,0.0,0 STARLINK-3654,1 52003U 22025AZ  23151.54519195  .00002289  00000-0  16181-3 0  9993,2 52003  53.2163 247.2995 0000622  97.2720 262.8343 15.08847602 67975,6917.857,95.437,540.152,539.292,0.0
52003.0,STARLINK-3654,PAYLOAD,2023-06-01 09:45:05,15.08852544,6.97e-05,53.2154,243.4347,70.606,289.5007,0.00048908,7.507e-05,0.0,0 STARLINK-3654,1 52003U 22025AZ  23152.40631654  .00007507  00000-0  48908-3 0  9994,2 52003  53.2154 243.4347 0000697  70.6060 289.5007 15.08852544 68108,6917.842,95.437,540.189,539.225,0.0
52003.0,STARLINK-3654,PAYLOAD,2023-06-01 22:28:10,15.0885692,7.5e-05,53.2156,241.0561,57.4046,302.7018,0.00021487,3.135e-05,0.0,0 STARLINK-3654,1 52003U 22025AZ  23152.93623111  .00003135  00000-0  21487-3 0  9997,2 52003  53.2156 241.0561 0000750  57.4046 302.7018 15.08856920 69696,6917.829,95.436,540.213,539.175,0.0
52003.0,STARLINK-3654,PAYLOAD,2023-06-02 09:35:52,15.0884273,6.37e-05,53.2152,238.9764,84.3478,275.7587,-0.00016026,-2.837e-05,0.0,0 STARLINK-3654,1 52003U 22025AZ  23153.39991158 -.00002837  00000-0 -16026-3 0  9990,2 52003  53.2152 238.9764 0000637  84.3478 275.7587 15.08842730 69766,6917.872,95.437,540.178,539.296,0.0
52003.0,STARLINK-3654,PAYLOAD,2023-06-02 11:11:15,15.08843248,6.34e-05,53.2153,238.679,79.0179,281.0884,-8.7704e-05,-1.683e-05,0.0,0 STARLINK-3654,1 52003U 22025AZ  23153.46615217 -.00001683  00000-0 -87704-4 0  9997,2 52003  53.2153 238.6790 0000634  79.0179 281.0884 15.08843248 68268,6917.87,95.437,540.174,539.297,0.0
52003.0,STARLINK-3654,PAYLOAD,2023-06-03 12:37:26,15.08838771,6.26e-05,53.2151,233.9212,77.7626,282.3436,-0.00010468,-1.953e-05,0.0,0 STARLINK-3654,1 52003U 22025AZ  23154.52599546 -.00001953  00000-0 -10468-3 0  9993,2 52003  53.2151 233.9212 0000626  77.7626 282.3436 15.08838771 68426,6917.884,95.438,540.182,539.316,0.0
52003.0,STARLINK-3654,PAYLOAD,2023-06-04 12:28:12,15.08844845,6.22e-05,53.2153,229.4599,83.5511,276.5552,0.00020238,2.935e-05,0.0,0 STARLINK-3654,1 52003U 22025AZ  23155.51959409  .00002935  00000-0  20238-3 0  9996,2 52003  53.2153 229.4599 0000622  83.5511 276.5552 15.08844845 68579,6917.866,95.437,540.161,539.3,0.0
52003.0,STARLINK-3654,PAYLOAD,2023-06-05 13:54:22,15.08851114,6.57e-05,53.2151,224.7019,80.3149,279.7917,0.00023369,3.435e-05,0.0,0 STARLINK-3654,1 52003U 22025AZ  23156.57943056  .00003435  00000-0  23369-3 0  9998,2 52003  53.2151 224.7019 0000657  80.3149 279.7917 15.08851114 68737,6917.846,95.437,540.166,539.257,0.0
52003.0,STARLINK-3654,PAYLOAD,2023-06-05 23:26:41,15.08842396,7.43e-05,53.2148,222.9173,78.2871,281.8204,7.5921e-05,9.21e-06,0.0,0 STARLINK-3654,1 52003U 22025AZ  23156.97687414  .00000921  00000-0  75921-4 0  9994,2 52003  53.2148 222.9173 0000743  78.2871 281.8204 15.08842396 70309,6917.873,95.437,540.252,539.224,0.0
52003.0,STARLINK-3654,PAYLOAD,2023-06-06 08:59:01,15.08816316,6.16e-05,53.2159,221.1331,94.8138,265.2925,0.00043182,6.587e-05,0.0,0 STARLINK-3654,1 52003U 22025AZ  23157.37432603  .00006587  00000-0  43182-3 0  9994,2 52003  53.2159 221.1331 0000616  94.8138 265.2925 15.08816316 70362,6917.953,95.439,540.244,539.392,0.0
52003.0,STARLINK-3654,PAYLOAD,2023-06-06 10:34:23,15.08842349,7.35e-05,53.2158,220.8356,81.7213,278.3863,4.6282e-05,4.49e-06,0.0,0 STARLINK-3654,1 52003U 22025AZ  23157.44055499  .00000449  00000-0  46282-4 0  9992,2 52003  53.2158 220.8356 0000735  81.7213 278.3863 15.08842349 68868,6917.873,95.437,540.247,539.23,0.0
52003.0,STARLINK-3654,PAYLOAD,2023-06-07 08:49:47,15.08840621,7.27e-05,53.216,216.6731,78.0757,282.0317,1.6041e-05,-3.2e-07,0.0,0 STARLINK-3654,1 52003U 22025AZ  23158.36791529 -.00000032  00000-0  16041-4 0  9994,2 52003  53.2160 216.6731 0000727  78.0757 282.0317 15.08840621 69008,6917.878,95.438,540.246,539.241,0.0
52003.0,STARLINK-3654,PAYLOAD,2023-06-08 08:40:32,15.08859861,7.33e-05,53.2157,212.2117,79.4454,280.662,0.00026176,3.883e-05,0.0,0 STARLINK-3654,1 52003U 22025AZ  23159.36149153  .00003883  00000-0  26176-3 0  9990,2 52003  53.2157 212.2117 0000733  79.4454 280.6620 15.08859861 70661,6917.82,95.436,540.192,539.178,0.0
52003.0,STARLINK-3654,PAYLOAD,2023-06-08 13:26:42,15.08867233,7.69e-05,53.2145,211.3197,78.567,281.5409,0.0004039,6.151e-05,0.0,0 STARLINK-3654,1 52003U 22025AZ  23159.56021281  .00006151  00000-0  40390-3 0  9998,2 52003  53.2145 211.3197 0000769  78.5670 281.5409 15.08867233 69187,6917.797,95.436,540.194,539.13,0.0
52003.0,STARLINK-3654,PAYLOAD,2023-06-09 10:06:45,15.08825735,4.68e-05,53.2149,207.4526,54.9792,305.1244,-0.00017143,-3.014e-05,0.0,0 STARLINK-3654,1 52003U 22025AZ  23160.42135473 -.00003014  00000-0 -17143-3 0  9991,2 52003  53.2149 207.4526 0000468  54.9792 305.1244 15.08825735 70826,6917.924,95.438,540.113,539.465,0.0
52003.0,STARLINK-3654,PAYLOAD,2023-06-09 13:17:31,15.0882854,9.51e-05,53.2145,206.8602,93.613,266.4971,-0.00028398,-4.803e-05,0.0,0 STARLINK-3654,1 52003U 22025AZ  23160.55383129 -.00004803  00000-0 -28398-3 0  9999,2 52003  53.2145 206.8602 0000951  93.6130 266.4971 15.08828540 69330,6917.915,95.438,540.438,539.123,0.0
52003.0,STARLINK-3654,PAYLOAD,2023-06-09 19:39:03,15.08826491,8.21e-05,53.2141,205.6706,85.156,274.9526,-0.00029418,-4.965e-05,0.0,0 STARLINK-3654,1 52003U 22025AZ  23160.81879297 -.00004965  00000-0 -29418-3 0  9997,2 52003  53.2141 205.6706 0000821  85.1560 274.9526 15.08826491 69374,6917.922,95.438,540.355,539.219,0.0
52003.0,STARLINK-3654,PAYLOAD,2023-06-10 11:32:55,15.0883234,0.0001001,53.2148,202.6964,86.4557,273.6549,-0.00011624,-2.137e-05,0.0,0 STARLINK-3654,1 52003U 22025AZ  23161.48119792 -.00002137  00000-0 -11624-3 0  9997,2 52003  53.2148 202.6964 0001001  86.4557 273.6549 15.08832340 69477,6917.904,95.438,540.461,539.076,0.0
52003.0,STARLINK-3654,PAYLOAD,2023-06-11 01:51:24,15.08829122,0.0001067,53.2148,200.02,85.9954,274.1161,0.0002311,3.391e-05,0.0,0 STARLINK-3654,1 52003U 22025AZ  23162.07736592  .00003391  00000-0  23110-3 0  9990,2 52003  53.2148 200.0200 0001067  85.9954 274.1161 15.08829122 69569,6917.914,95.438,540.517,539.04,0.0
52003.0,STARLINK-3654,PAYLOAD,2023-06-11 19:20:38,15.08841738,0.0001098,53.2146,196.749,85.4118,274.6999,0.00038417,5.832e-05,0.0,0 STARLINK-3654,1 52003U 22025AZ  23162.80600662  .00005832  00000-0  38417-3 0  9997,2 52003  53.2146 196.7490 0001098  85.4118 274.6999 15.08841738 69673,6917.875,95.437,540.5,538.98,0.0
52003.0,STARLINK-3654,PAYLOAD,2023-06-12 03:17:34,15.08847084,0.0001107,53.2145,195.262,86.0707,274.0411,0.00039724,6.041e-05,0.0,0 STARLINK-3654,1 52003U 22025AZ  23163.13720499  .00006041  00000-0  39724-3 0  9990,2 52003  53.2145 195.2620 0001107  86.0707 274.0411 15.08847084 71231,6917.859,95.437,540.49,538.958,0.0
52003.0,STARLINK-3654,PAYLOAD,2023-06-12 11:14:29,15.0885105,0.0001084,53.2143,193.775,85.0781,275.0335,0.00037696,5.718e-05,0.0,0 STARLINK-3654,1 52003U 22025AZ  23163.46840230  .00005718  00000-0  37696-3 0  9998,2 52003  53.2143 193.7750 0001084  85.0781 275.0335 15.08851050 69771,6917.847,95.437,540.462,538.962,0.0
52003.0,STARLINK-3654,PAYLOAD,2023-06-12 19:11:25,15.08844417,0.0001154,53.2147,192.2889,87.8299,272.2825,0.00016303,2.308e-05,0.0,0 STARLINK-3654,1 52003U 22025AZ  23163.79960369  .00002308  00000-0  16303-3 0  9994,2 52003  53.2147 192.2889 0001154  87.8299 272.2825 15.08844417 71331,6917.867,95.437,540.53,538.934,0.0
